First Name,Last Name,Address,City,State,ZIP
,,2028 E 81ST ST,CHICAGO,CO,12468
,,5739 S BOND AVE,Anytown,CO,12468
,,591 N MOHAWK ST,CHICAGO,CO,13579
,,5993 S HOUSTON AVE,Anytown,CO,12468
,,631 N LA SALLE DR,CHICAGO,CO,13579
,,831 N SANDBURG TER,Anytown,CO,13579
ABBEY,FITZPATRICK,5437 S PHILLIPS AVE,CHICAGO,CO,12468
ADEPEJU,NABEREZNY,7562 S AVENUE C,Anytown,CO,12468
ADOLPHUS,SANTOS,5723 S PHILLIPS AVE,CHICAGO,CO,12468
ADOLPHUS,SHETH,7215 S BENSLEY AVE,CHICAGO,CO,12468
ADRI,BABICK,103 W MAPLE ST,CHICAGO,CO,13579
AIMEE,FULLILOVE,38 W DELAWARE PL,Anytown,CO,13579
ALDA,SHERIDAN,5449 S KINGSTON AVE,CHICAGO,CO,12468
ALEJANDRO,MOORE,962 N LAKE SHORE DR,Anytown,CO,13579
ALEKSANDRA,MEYER,5672 S MERRILL AVE,Anytown,CO,12468
ALFONSO,KARBIN,618 N KINGSBURY ST,CHICAGO,CO,13579
ALICE,OFOSU,5649 S COLES AVE,Anytown,CO,12468
ALISON,KILKUSKIE,783 N WELLS ST,CHICAGO,CO,13579
ALLAN,FELLOWS,781 N STATE ST,CHICAGO,CO,13579
ALPHONSE,DHAR,833 N LA SALLE DR,CHICAGO,CO,13579
AMA,SINGLETARY,999 N SANDBURG TER,CHICAGO,CO,13579
AMBER,BALDWIN,1105 E 85TH PL,CHICAGO,CO,12468
AMBER,PARKER,5503 S SOUTH SHORE DR,CHICAGO,CO,12468
AMIRA,ANDERSON,5599 S COLFAX AVE,CHICAGO,CO,12468
ANDRE,ELFENBAUM,6001 S SOUTH CHICAGO AVE,CHICAGO,CO,12468
ANN,FINK,1 W DELAWARE PL,Anytown,CO,13579
ANNE,VERTELKA,5800 S OGLESBY AVE,CHICAGO,CO,12468
ANTOINETTE,FASEN,934 N SANDBURG TER,CHICAGO,CO,13579
ANTON,MOREY,1118 E 92ND PL,Anytown,CO,12468
ANTONIO,BLENDER,5644 S SAGINAW AVE,CHICAGO,CO,12468
ANYSSA,LOWE,1036 N WIELAND ST,CHICAGO,CO,13579
ARLENE,ABINION,5718 S ESSEX AVE,Anytown,CO,12468
AUDREY,JOHNS,7292 S AVENUE B,Anytown,CO,12468
AUDREY,TILLERY,2101 E 96TH ST,Anytown,CO,12468
AUDREY,WILLIAMS,6742 S AVENUE M,Anytown,CO,12468
BALAJI,SALGADO,5712 S KINGSTON AVE,CHICAGO,CO,12468
BAM,GWIN,778 N DEARBORN ST,CHICAGO,CO,13579
BAM,SCARBERRY,763 N DEARBORN ST,CHICAGO,CO,13579
BART,TELLEZ,6556 S CALHOUN AVE,Anytown,CO,12468
BERNICE,TOBAR,PO BOX 17267,CHICAGO,CO,12468
BOBBIE,ANDRADE,5461 S BURNHAM AVE,Anytown,CO,12468
BRADLEY,MORENO,5572 S MANISTEE AVE,CHICAGO,CO,12468
BRADLEY,NAUSEDA,156 E SCOTT ST,CHICAGO,CO,13579
BRADLEY,ROBINSON,916 N CLEVELAND AVE,CHICAGO,CO,13579
BRADLEY,RODGERS,1061 N LARRABEE ST,CHICAGO,CO,13579
BRADY,MARTIN,927 N WELLS ST,CHICAGO,CO,13579
BRANDON,GOODMAN,518 W EVERGREEN AVE,CHICAGO,CO,13579
BRENDA,ADEYEMO,21 E DIVISION ST,CHICAGO,CO,13579
BRETT,PUJA,903 N CLYBOURN AVE,CHICAGO,CO,13579
BRIAN,GILMAN,111 W BURTON PL,CHICAGO,CO,13579
BRICK,GLOVER,5806 S ESCANABA AVE,Anytown,CO,12468
CANDICE,SHEPSKY,1118 E 85TH PL,Anytown,CO,12468
CAROLYN,NJENANZE,962 N LA SALLE DR,CHICAGO,CO,13579
CATRINA,CHAITIN,5444 S CONSTANCE AVE,CHICAGO,CO,12468
CAVETTA,GOEHAUSEN,5839 S CRANDON AVE,Anytown,CO,12468
CELESTE,STEVENSON,790 N HOWE ST,CHICAGO,CO,13579
CHARLES,KRAMER,5432 S ESSEX AVE,CHICAGO,CO,12468
CHRISTINA,CARR,7 W ELM ST,CHICAGO,CO,13579
CHRISTINE,BERNSHTEYN,PO BOX 10661,CHICAGO,CO,13579
CHRISTINE,ISSA,28 E SCHILLER ST,CHICAGO,CO,13579
CINTYA,SCHUELLER,995 N ORLEANS ST,Anytown,CO,13579
CLAIRE,FERGUSON,7094 S AVENUE N,Anytown,CO,12468
CLIFTON,PARKER,708 N STATE ST,CHICAGO,CO,13579
CLINTON,SHAMBLOTT,792 N FRONTIER AVE,CHICAGO,CO,13579
COLGLOVERN,ROBLES,914 N DEARBORN ST,CHICAGO,CO,13579
CONSTANCB,STOTLERNO,931 N SANDBURG TER,CHICAGO,CO,13579
CORINE,MEDINA,712 N DEARBORN ST,CHICAGO,CO,13579
CORNELIUS,DEROO,1 W DELAWARE PL,Anytown,CO,13579
CORNELL,FURGANSON,5502 S SAGINAW AVE,CHICAGO,CO,12468
CORSETTI,LAND,769 N LA SALLE DR,CHICAGO,CO,13579
CZESLAWA,JONES,5663 S SOUTH SHORE DR,Anytown,CO,12468
DANAHEY,DULCE,5637 S CHAPPEL AVE,Anytown,CO,12468
DANIEL,HAMILTON,5499 S YATES BLVD,CHICAGO,CO,12468
DANILO,TURNER,927 N SEDGWICK ST,CHICAGO,CO,13579
DAVID,ROGERS,931 N SANDBURG TER,CHICAGO,CO,13579
DEANNA,HADZOVIC,5701 S CONSTANCE AVE,CHICAGO,CO,12468
DEATRICE,NUNEZ,855 N CLYBOURN AVE,CHICAGO,CO,13579
DEATRICE,TKACHENKO,839 N DEARBORN ST,CHICAGO,CO,13579
DEEP,ROSENBAUM,767 N DEARBORN ST,CHICAGO,CO,13579
DEFELL,FEDER,5567 S EUCLID AVE,CHICAGO,CO,12468
DELORIS,PUNKA,5508 S EUCLID AVE,CHICAGO,CO,12468
DESIDERIO,MEHTA,103 W MAPLE ST,CHICAGO,CO,13579
DEWIGHT,MIRUS,6893 S YATES BLVD,Anytown,CO,12468
DEWIGHT,WATZKA,934 N LAKE SHORE DR,CHICAGO,CO,13579
DIANE,GOODMAN,378 W NORTH AVE,CHICAGO,CO,13579
DIANN,KLEINMAN,7 W ELM ST,CHICAGO,CO,13579
DOBBI,PANTOJA,5735 S EAST END AVE,CHICAGO,CO,12468
DOLORES,FRENKLAKH,962 N LAKE SHORE DR,Anytown,CO,13579
DONALD,ELHARD,5633 S BRANDON AVE,CHICAGO,CO,12468
DONN,MCCULLOM,1002 N LARRABEE ST,CHICAGO,CO,13579
EDNA,BEIRANVAND,378 W NORTH AVE,CHICAGO,CO,13579
EDNA,CHINN,5733 S COLFAX AVE,CHICAGO,CO,12468
EDNA,FISHER,862 N SANDBURG TER,CHICAGO,CO,13579
EDUARDO,HEESTAND,7235 S GREEN BAY AVE,Anytown,CO,12468
EDWIN,BALDERAMA,6539 S CONSTANCE AVE,Anytown,CO,12468
EIGLOVERN,WYATT,6000 S CONSTANCE AVE,Anytown,CO,12468
ELAINE,HORIATIS,14 W CHESTNUT ST,CHICAGO,CO,13579
ELISE,PUENTE,5530 S ESSEX AVE,Anytown,CO,12468
ELIZABETH,TWIGGS,5449 S EAST END AVE,CHICAGO,CO,12468
EMMA,RICHARDSON,5653 S RIDGELAND AVE,CHICAGO,CO,12468
ERIC,FAULKNER,756 N DEARBORN ST,CHICAGO,CO,13579
ERIC,JENKINS,687 N LA SALLE DR,CHICAGO,CO,13579
ERICKA,WOODS,7562 S AVENUE M,Anytown,CO,12468
ERWIN,WILLIAMS,60 W SCHILLER ST,CHICAGO,CO,13579
ERWIN,WILLIAMS,60 W SCHILLER ST,CHICAGO,CO,13579
ESTHER,SMYTH,783 N LA SALLE DR,CHICAGO,CO,13579
EVA,AMOS,285 W EVERGREEN AVE,CHICAGO,CO,13579
EVE,BRIMLEY,5578 S EXCHANGE AVE,CHICAGO,CO,12468
F,RUDZITIS,6679 S BRENNAN AVE,Anytown,CO,12468
FREDDIE,BOURNES,708 N DEARBORN ST,CHICAGO,CO,13579
GABRIELLE,BRYAN,938 N HUDSON AVE,CHICAGO,CO,13579
GADOLA,BUCKNER,5642 S LUELLA AVE,CHICAGO,CO,12468
GAIL,WENZLAFF,80 W ELM ST,CHICAGO,CO,13579
GEMMAGY,HEESTAND,5523 S PAXTON AVE,Anytown,CO,12468
GENIA,ABERNATHY,446 W DIVISION ST,CHICAGO,CO,13579
GEORGE,GARDNER,5735 S COLFAX AVE,CHICAGO,CO,12468
GERALD,WRIGHT,999 N SANDBURG TER,CHICAGO,CO,13579
GERMAN,DUCKWORTH,894 N DEARBORN ST,CHICAGO,CO,13579
GWENDOLYN,BEJARANO,771 N CLARK ST,CHICAGO,CO,13579
H,M,1039 N LA SALLE DR,Anytown,CO,13579
HAROLD,DOPPELT,5581 S SAGINAW AVE,CHICAGO,CO,12468
HEATHER,SIMMONS,5448 S SOUTH SHORE DR,CHICAGO,CO,12468
HESTER,MAHONEY,969 N STATE PKWY,CHICAGO,CO,13579
HIROKO,WARD,2091 E 79TH PL,CHICAGO,CO,12468
INEZ,PAWLOWSKI,225 W GOETHE ST,Anytown,CO,13579
IRENE,SILHA,5453 S MERRILL AVE,CHICAGO,CO,12468
IRMA,BLAND,927 N WELLS ST,CHICAGO,CO,13579
IRMA,BLAND,927 N WELLS ST,CHICAGO,CO,13579
IRVING,KURCZABA,5860 S BURLEY AVE,CHICAGO,CO,12468
J,GRABOWSKI,5992 S BUFFALO AVE,Anytown,CO,12468
J,WARNER,6680 S EXCHANGE AVE,Anytown,CO,12468
JABA,GRANSKY,795 N CLEVELAND AVE,CHICAGO,CO,13579
JAMIE,GARCIA,1031 N STATE PKWY,CHICAGO,CO,13579
JAMIE,MYERS,7024 S TORRENCE AVE,Anytown,CO,12468
JASON,FOWLES,5456 S BENNETT AVE,CHICAGO,CO,12468
JEAN,DAVIS,771 N CLARK ST,CHICAGO,CO,13579
JEFFREY,MATTHEWS,778 N DEARBORN ST,CHICAGO,CO,13579
JELA,VALCHUK,14 W CHESTNUT ST,CHICAGO,CO,13579
JESUS,SANDERS,763 N DEARBORN ST,CHICAGO,CO,13579
JILL,HAQQ,117 W OAK ST,CHICAGO,CO,13579
JOAN,SANCHEZ,833 N LA SALLE DR,CHICAGO,CO,13579
JODY,SARNA,5725 S BURNHAM AVE,Anytown,CO,12468
JOHN,MANDILOVITCH,117 W OAK ST,CHICAGO,CO,13579
JORGE,MILLER,206 W HILL ST,CHICAGO,CO,13579
JOSE,WEBER,1933 E 80TH ST,CHICAGO,CO,12468
JOYCE,REYNAUD,1068 N SANDBURG TER,Anytown,CO,13579
JR,SHERWIN,5529 S CHAPPEL AVE,CHICAGO,CO,12468
JUDI,HAYNES,7371 S BUFFALO AVE,Anytown,CO,12468
JUGOSLAV,LAVERY,6546 S ESCANABA AVE,Anytown,CO,12468
KARI,CARLSON,931 N SANDBURG TER,CHICAGO,CO,13579
KATHERINE,ORTIZ,2064 E 79TH PL,CHICAGO,CO,12468
KATHY,MIHINA,5466 S KINGSTON AVE,CHICAGO,CO,12468
KE,ELHARD,216 W NORTH AVE,CHICAGO,CO,13579
KELLY,LEWIS,5569 S COLES AVE,CHICAGO,CO,12468
KEMYARI,PLASCENCIA,1051 N DEARBORN PKWY,CHICAGO,CO,13579
KEVIN,HELLER,835 N ASTOR ST,CHICAGO,CO,13579
KIMBERLY,CZESTOCHOWSKI,5710 S MERRILL AVE,CHICAGO,CO,12468
KIMBERLY,JENKINS,920 N ASTOR ST,CHICAGO,CO,13579
KIMBERLY,MCLERAN,5778 S OGLESBY AVE,CHICAGO,CO,12468
KIMBERLY,ROBINSON,989 N STATE PKWY,Anytown,CO,13579
KIMYONA,SANTELLILINDSAY,938 N HUDSON AVE,CHICAGO,CO,13579
KINSELLA,PINEDO,1886 E 80TH ST,Anytown,CO,12468
KIRTAN,KING,637 N HUDSON AVE,CHICAGO,CO,13579
KISHAN,WATROBKA,6761 S EWING AVE,Anytown,CO,12468
KRISTIE,ARONSON,158 W DIVISION ST,CHICAGO,CO,13579
KYLE,RUDZITIS,2209 E 90TH ST,Anytown,CO,12468
L,BENNETT,5637 S CHAPPEL AVE,CHICAGO,CO,12468
L,ELEAZAR,5734 S MARQUETTE AVE,Anytown,CO,12468
L,HOFFMAN,5637 S CHAPPEL AVE,CHICAGO,CO,12468
L,LATHAM,38 W CHESTNUT ST,Anytown,CO,13579
L,LEWIS,5733 S MACKINAW AVE,Anytown,CO,12468
L,MCNAMEE,894 N CLEVELAND AVE,CHICAGO,CO,13579
LAURA,HOGAN,931 N SANDBURG TER,CHICAGO,CO,13579
LAURA,LEWENSOHN,5431 S COLES AVE,CHICAGO,CO,12468
LAVELL,SANCHEZ,969 N WELLS ST,CHICAGO,CO,13579
LAVELLE,BROWN,6743 S EWING AVE,Anytown,CO,12468
LAVON,LETSOS,583 N FRANKLIN ST,CHICAGO,CO,13579
LEAH,KERMAN,6533 S CONSTANCE AVE,Anytown,CO,12468
LECHAE,BJERKE,6188 S LUELLA AVE,Anytown,CO,12468
LEON,FENSKE,1754 E 93RD ST,Anytown,CO,12468
LEONTEEN,CARTER,1051 N NORTH PARK AVE,CHICAGO,CO,13579
LESHAN,FARBER,792 N FRONTIER AVE,CHICAGO,CO,13579
LIZANNE,LEVINE,7243 S AVENUE M,Anytown,CO,12468
LONNIE,FIELCH,6326 S KINGSTON AVE,Anytown,CO,12468
LORIE,CHATZ,1003 N SANDBURG TER,CHICAGO,CO,13579
MAGDALENA,TZOU,902 N RITCHIE CT,CHICAGO,CO,13579
MAGDALENA,WEINER,5495 S KINGSTON AVE,CHICAGO,CO,12468
MARCIA,GILMAN,5715 S ANTHONY AVE,CHICAGO,CO,12468
MARIO,HARRIS,1518 E 83RD ST,Anytown,CO,12468
MARISSA,ADAMS,1068 N SANDBURG TER,Anytown,CO,13579
MARTHA,GORZELA,5655 S EAST END AVE,CHICAGO,CO,12468
MARY ELLEN,HARPER,347 W OAK ST,CHICAGO,CO,13579
MATILDE,DUGANS,PO BOX 101051,Anytown,CO,13579
MATT,IDASZAK,5657 S LUELLA AVE,Anytown,CO,12468
MCCURTIS,BRIGGS,5778 S BAKER AVE,Anytown,CO,12468
MEAGAN,LEVOFF,584 N STATE ST,CHICAGO,CO,13579
MELANIE,HERNANDEZ,5600 S ESCANABA AVE,Anytown,CO,12468
MEREDITH,MALISIC,6304 S SOUTH CHICAGO AVE,Anytown,CO,12468
MEREDITH,RILEY,971 N WELLS ST,CHICAGO,CO,13579
MERINDA,LEDEZMA,5581 S MANISTEE AVE,CHICAGO,CO,12468
MICHELE,STEINBERG,6746 S BENSLEY AVE,Anytown,CO,12468
MICHELLE,KUZNIAR,1050 N CLEVELAND AVE,Anytown,CO,13579
MILES,BERLAND,996 N ASTOR ST,CHICAGO,CO,13579
MIODRAG,KEMP,5535 S CLYDE AVE,CHICAGO,CO,12468
MIODRAG,MCMAHON,975 N LAKE SHORE DR,CHICAGO,CO,13579
MIZUKY,MCINTYRE,6947 S AVENUE N,CHICAGO,CO,12468
MIZUKY,WENTE,862 N SANDBURG TER,CHICAGO,CO,13579
MURIEL,FELT,756 N DEARBORN ST,CHICAGO,CO,13579
N,MCMAHON,5523 S MANISTEE AVE,CHICAGO,CO,12468
N,NABEREZNY,5461 S SAGINAW AVE,CHICAGO,CO,12468
NATALIYA,MIRUS,1469 E 84TH ST,CHICAGO,CO,12468
NELLY,CHAPMAN,1033 N DEARBORN PKWY,CHICAGO,CO,13579
NELLY,GORZELA,5584 S COLES AVE,CHICAGO,CO,12468
NELLY,MCCORMICK,1954 E 80TH ST,CHICAGO,CO,12468
NELLY,NOREEN,5581 S PAXTON AVE,CHICAGO,CO,12468
NELLY,PANDYA,920 N DEARBORN ST,CHICAGO,CO,13579
NORMAN,SKENNEBREW,938 N HUDSON AVE,CHICAGO,CO,13579
OLGA,JONES,156 E SCOTT ST,CHICAGO,CO,13579
OLIN,ROBLES,1121 E 83RD PL,CHICAGO,CO,12468
OLIVIA,ROSE,778 N DEARBORN ST,CHICAGO,CO,13579
PALMER,GARGANO,1935 E 80TH ST,CHICAGO,CO,12468
PATRICE,HENDRICKS,104 W ELM ST,CHICAGO,CO,13579
PATRICE,IWAMURO,894 N DEARBORN ST,CHICAGO,CO,13579
PATRICE,WESTERBERG,1012 N LARRABEE ST,CHICAGO,CO,13579
PATRICK,RUBENACKER,5497 S SAGINAW AVE,Anytown,CO,12468
PEARLIE,SALATINO,934 N LAKE SHORE DR,CHICAGO,CO,13579
PETER,BRITT,160 W NORTH AVE,CHICAGO,CO,13579
PLATO,DANIELS,5441 S SOUTH SHORE DR,Anytown,CO,12468
POLLY,PECK,5735 S COLFAX AVE,CHICAGO,CO,12468
PRADEEP,HOLZKNECHT,900 N RITCHIE CT,CHICAGO,CO,13579
PRISCILLA,LOGWOOD,5600 S ESCANABA AVE,CHICAGO,CO,12468
PROVIDENCIA,BERRY,1527 E 102ND ST,Anytown,CO,12468
PROVIDENCIA,WINKLER,1065 N LAKE SHORE DR,CHICAGO,CO,13579
PURDIS,CORBIN,899 N WELLS ST,CHICAGO,CO,13579
R,GODWIN,5521 S BURNHAM AVE,CHICAGO,CO,12468
RAPHAEL,WEXLER,5565 S BURNHAM AVE,CHICAGO,CO,12468
REGINA,MAHAFFEY,7232 S AVENUE N,Anytown,CO,12468
REGINA,MCINTIRE,771 N CLARK ST,CHICAGO,CO,13579
RENEE,REYNAUD,708 N STATE ST,CHICAGO,CO,13579
RICHARD,REYNOLDS,76 W MAPLE ST,Anytown,CO,13579
RODNEY,AREVALO,618 N KINGSBURY ST,CHICAGO,CO,13579
RODRIGUEZY,AREVALO,700 N DEARBORN ST,CHICAGO,CO,13579
RODRIGUEZY,AREVALO,700 N DEARBORN ST,CHICAGO,CO,13579
RODRIGUEZY,WOODS,783 N LA SALLE DR,CHICAGO,CO,13579
ROSA,BENTON,5803 S BURNHAM AVE,Anytown,CO,12468
ROY,WEXNER,6763 S MANISTEE AVE,Anytown,CO,12468
ROZA,MARSEILLE,289 W NORTH AVE,CHICAGO,CO,13579
ROZA,MARSEILLE,289 W NORTH AVE,CHICAGO,CO,13579
RUSSELL,GROSBOLL,7041 S COMMERCIAL AVE,Anytown,CO,12468
RUSSELL,SULLIVAN,5938 S MANISTEE AVE,Anytown,CO,12468
RUTH,COLLINS,5579 S LUELLA AVE,CHICAGO,CO,12468
RYAN,THOMAS,5440 S MERRILL AVE,CHICAGO,CO,12468
S,KASHETSKAYA,5601 S YATES BLVD,CHICAGO,CO,12468
SAMAR,FANNING,1072 N SANDBURG TER,CHICAGO,CO,13579
SAMAR,TANCY,1072 N SANDBURG TER,CHICAGO,CO,13579
SAMUEL,OWEN,994 N CLEVELAND AVE,CHICAGO,CO,13579
SANDRA,TOBAR,5654 S JEFFERY BLVD,CHICAGO,CO,12468
SANJEEV,FRENKLAKH,927 N LAKE SHORE DR,Anytown,CO,13579
SANJEEV,HEYDORN,982 N WELLS ST,Anytown,CO,13579
SANJEEV,JAZIC,5448 S OGLESBY AVE,Anytown,CO,12468
SANJEEV,MCRORIE,6951 S OGLESBY AVE,Anytown,CO,12468
SANJEEV,ROMANO,969 N STATE PKWY,CHICAGO,CO,13579
SANJEEV,TIRENGEL,771 N CLARK ST,CHICAGO,CO,13579
SARANJIT,GROH,1068 N DEARBORN PKWY,CHICAGO,CO,13579
SERON,CHRISTIAN,996 N SEDGWICK ST,CHICAGO,CO,13579
SHARITA,WYATT,6210 S BUFFALO AVE,Anytown,CO,12468
SHELLY,BELL,7642 S AVENUE J,Anytown,CO,12468
SIEGEL,PORTER,1030 N ORLEANS ST,CHICAGO,CO,13579
SILVIA,GULLEY,5565 S COLES AVE,CHICAGO,CO,12468
STEPHEN,STERN,23 W DELAWARE PL,Anytown,CO,13579
STEVEN,SPITLER,2028 E 81ST PL,CHICAGO,CO,12468
SUGIT,KING,5587 S BURNHAM AVE,Anytown,CO,12468
SUSAN,FOSTER,6193 S YATES BLVD,Anytown,CO,12468
T,CHATMON,608 N CAMBRIDGE AVE,CHICAGO,CO,13579
TANIKA,LOBELSON,893 N LAKE SHORE DR,CHICAGO,CO,13579
TANIKA,PREHEIM,893 N LAKE SHORE DR,CHICAGO,CO,13579
TANYA,BABICK,1039 N WIELAND ST,CHICAGO,CO,13579
TANYA,BRIGGS,5464 S YATES BLVD,CHICAGO,CO,12468
TANYA,LAMANTIA,7793 S GREEN BAY AVE,Anytown,CO,12468
TANYA,MCSWAIN,833 N LAKE SHORE DR,CHICAGO,CO,13579
TANYA,REHKEMPER,708 N STATE ST,CHICAGO,CO,13579
TANYA,ZECHMAN,708 N STATE ST,CHICAGO,CO,13579
TEQUEILLA,TAYLOR,5638 S CLYDE AVE,CHICAGO,CO,12468
TERESA,BIBBS,6669 S CHAPPEL AVE,Anytown,CO,12468
TOMAS,MCMAHON,6758 S HOXIE AVE,CHICAGO,CO,12468
TOMMIE,SIMMONS,989 N WELLS ST,CHICAGO,CO,13579
TONY,SHERWIN,1065 N LAKE SHORE DR,CHICAGO,CO,13579
TRUSKA,DIGBY,938 N HUDSON AVE,CHICAGO,CO,13579
VERNON,PEREVERZEV,1124 E 86TH PL,Anytown,CO,12468
VERNON,PUNKA,5506 S EUCLID AVE,CHICAGO,CO,12468
VERONICA,KNAUFF,975 N STATE PKWY,CHICAGO,CO,13579
VICTOR,MILLER,5585 S SAGINAW AVE,CHICAGO,CO,12468
WANDA,GRIFFIN,931 N SANDBURG TER,CHICAGO,CO,13579
WARREN,GALLAGHER,989 N LAKE SHORE DR,CHICAGO,CO,13579
WILMA,TORRES,158 W DIVISION ST,CHICAGO,CO,13579
WINTER,KOWALEWICZ,923 N MOHAWK ST,Anytown,CO,13579
YVETTE,PAYNE,2067 E 90TH ST,Anytown,CO,12468
ZAIDA,KINSELLA,5592 S OGLESBY AVE,CHICAGO,CO,12468
